[{"OBJECT_NAME":"STARLINK-31574","OBJECT_ID":"2024-074K","EPOCH":"2026-03-09T04:07:35.313600","MEAN_MOTION":15.2757108,"ECCENTRICITY":9.803e-5,"INCLINATION":43.0004,"RA_OF_ASC_NODE":346.5792,"ARG_OF_PERICENTER":281.8473,"MEAN_ANOMALY":78.2269,"EPHEMERIS_TYPE":0,"CLASSIFICATION_TYPE":"U","NORAD_CAT_ID":59543,"ELEMENT_SET_NO":999,"REV_AT_EPOCH":10593,"BSTAR":-8.0926251e-5,"MEAN_MOTION_DOT":-2.487e-5,"MEAN_MOTION_DDOT":0},{"OBJECT_NAME":"POEM","OBJECT_ID":"2022-072E","EPOCH":"2026-03-08T08:06:01.299456","MEAN_MOTION":15.22764653,"ECCENTRICITY":0.00236837,"INCLINATION":9.9515,"RA_OF_ASC_NODE":116.6548,"ARG_OF_PERICENTER":142.2805,"MEAN_ANOMALY":217.9074,"EPHEMERIS_TYPE":0,"CLASSIFICATION_TYPE":"U","NORAD_CAT_ID":52939,"ELEMENT_SET_NO":999,"REV_AT_EPOCH":20410,"BSTAR":0.00045784559,"MEAN_MOTION_DOT":0.00012084,"MEAN_MOTION_DDOT":0}]
